datelastmodified,scientificname,catalognumber,country,stateprovince,county,locality,latitude_final,longitude_final
2013-07-03T13:59:30Z,Mimosa lewisii,8164,Brasil,Bahia,Lençóis,"Brasil, Bahia, Lençois, Coqueiro.",-12.5631,-41.39
2016-06-27T19:09:46Z,Mimosa lewisii,17018,Brasil,Alagoas,Olho d'água do Casado,NA,-9.50194,-37.8339
2020-02-08T12:10:18Z,Mimosa lewisii,U.1309375,Brazil,NA,NA,"Estado da Bahia. Morro Do Chapeu. 19.5 km SE of the town of Morro do Chapeu on the BA052 road to Mundo Novo, by the Rio Ferro Doido.",-11.633333,-41.033333
2019-11-13T14:22:46Z,Mimosa lewisii,104211,Brasil,Bahia,Palmeiras,Morro do Pai Inácio,-12.455556,-41.470833
2019-11-13T14:22:46Z,Mimosa lewisii,105191,Brasil,Bahia,Lençóis,Serra da Chapadinha,-12.453611,-41.447222
2019-11-13T14:22:46Z,Mimosa lewisii,120915,Brasil,Bahia,Lençóis,Chapada Diamantina,-12.563099861145,-41.3899993896484
2019-11-13T14:22:46Z,Mimosa lewisii,153968,Brasil,Bahia,Inhambupe,NA,-11.7843999862671,-38.353099822998
2019-11-13T14:22:46Z,Mimosa lewisii,208852,Brasil,Bahia,Andaraí,"Na beira da estrada para Igatu, próximo à afloramento.",-12.894722,-41.307139
2019-11-13T14:22:46Z,Mimosa lewisii,214222,Brasil,Bahia,Morro do Chapéu,NA,-11.4975,-41.119167
2019-11-13T14:22:46Z,Mimosa lewisii,40156,Brasil,Bahia,Palmeiras,Km 232 da rodovia BR 242 para Ibotiram. Pai Inácio. Mata de Galeria in campo rupestre.,-12.5,-41.45
2019-11-13T14:22:46Z,Mimosa lewisii,67149,Brasil,Bahia,Palmeiras,Morro do Pai Inácio,-12.45,-41.466667
2019-11-19T18:44:34Z,Mimosa lewisii,10021,Brasil,Bahia,Morro do Chapéu,Cachoeira so ferro doido.,-11.55,-10.15
2019-11-19T18:44:34Z,Mimosa lewisii,10160,Brasil,Bahia,Morro do Chapéu,Chapada Diamantina.,-11.672778,-41.010833
2019-11-19T18:44:34Z,Mimosa lewisii,1033,Brasil,Bahia,Camaçari,Área próxima de Guarajuba.,-12.6975002288818,-38.3241996765137
2019-11-19T18:44:34Z,Mimosa lewisii,7176,Brasil,Bahia,Morro do Chapéu,"Rio do Ferro Doido, ca. 18 km leste da cidade na BR052",-11.55,-41.15
2019-08-02T13:21:28Z,Mimosa lewisii,3380,Brasil,Pernambuco,Buíque,Vale do Catimbau,-8.62306022644043,-37.1557998657227
2019-07-31T17:32:43Z,Mimosa lewisii,5711,Brasil,Bahia,Jeremoabo,NA,-10.345556,-38.898889
2019-07-31T17:32:54Z,Mimosa lewisii,6212,Brasil,Bahia,Mucugê,Alto do rio Paraguaçu,-13.6425,-41.6425
2019-08-02T13:21:28Z,Mimosa lewisii,904,Brasil,Bahia,Morro do Chapéu,"3,5 Km Morro do Chapéu - Salvador.",-11.975833,-41.285278
2018-05-14T20:33:18Z,Mimosa lewisii,V0164076F,Brazil,Bahia,NA,NA,-11,-42
2020-07-16T12:26:17Z,Mimosa lewisii,136588,Brazil,Bahia,Morro do Chapéu,"Rio do Ferro Doido, 19.5 km SE of Morro do Chapéu on the BA 052 highway to Mundo Novo",-11.5500001907349,-41.1561012268066
2020-07-16T12:26:17Z,Mimosa lewisii,136589,Brazil,Bahia,Palmeiras,"Serra dos Lençóis, Lower slopes of Morro do Pai Inácio ca. 14.5 km NW of Lençóis, just N of the main Seabra-Itaberaba road.",-12.5289001464844,-41.5588989257812
2020-07-16T12:26:17Z,Mimosa lewisii,186222,Brazil,Bahia,Santa Brígida,10km W do entroncamanto de Santa Brígida com a Rod. BR-110,-9.73610973358154,-38.127799987793
2020-07-16T12:26:17Z,Mimosa lewisii,186224,Brazil,Bahia,Tucano,"7km NE de Tucano na estrada para Ribeira do Pombal, Rod. BR-410",-10.9631004333496,-38.7867012023926
2020-07-16T12:26:17Z,Mimosa lewisii,206168,Brazil,Bahia,Itapicuru,Ca. 8km SE do Entroncamento para o Rio Real com a Rod. BR-349,-11.3166999816895,-38.2332992553711
2020-07-16T12:26:17Z,Mimosa lewisii,87747,Brazil,Bahia,Mucugê,"Serra do Sincorá, 15 km S de Mucugê",-13.0052995681763,-41.3708000183105
2019-10-09T14:16:35Z,Mimosa lewisii,000298,Brasil,Bahia,Olindina,"Nordeste, Tabuleiro Cipó",-11.3667001724243,-38.3333015441895
2019-10-09T14:16:35Z,Mimosa lewisii,000299,Brasil,Bahia,Serrinha,"Nordeste, Fazenda Mucambo",-11.6641998291016,-39.0074996948242
2019-10-09T14:16:35Z,Mimosa lewisii,001318,Brasil,Bahia,Ribeira do Pombal,"Nordeste, estre Pombal e Tucano",-10.834400177002,-38.5358009338379
2019-10-09T14:16:35Z,Mimosa lewisii,00298,Brasil,Bahia,Cipó,"Nordeste, Olindina",-11.1,-38.516667
2019-10-09T14:16:35Z,Mimosa lewisii,00299,Brasil,Bahia,Serrinha,"Nordeste, Fazenda Mucambo",-11.65,-39
2019-10-09T14:16:35Z,Mimosa lewisii,01318,Brasil,Bahia,Tucano,"Nordeste, Entre Pombal e Tucano",-10.95,-38.783333
2019-10-09T14:16:35Z,Mimosa lewisii,021118,Brasil,Bahia,Salvador,"Região Metropolitana Salvador, Dunas perto do aeroporto",-12.9710998535156,-38.510799407959
2019-10-09T14:16:35Z,Mimosa lewisii,021622,Brasil,Bahia,Ituaçu,"Serra Geral, Sítio µgua Preta",-13.8133001327515,-41.2966995239258
2019-10-09T14:16:35Z,Mimosa lewisii,021622,Brasil,Bahia,Ituaçu,"Serra Geral, Sítio Água Preta",-13.8,-41.283333
2020-08-11T03:16:03Z,Mimosa lewisii,023290,Brasil,Bahia,Paulo Afonso,"Nordeste, Estação Ecológica do Raso da Catarina, Mata das Pororocas",-9.40610980987549,-38.2146987915039
2020-07-07T03:49:27Z,Mimosa lewisii,023698,Brasil,Bahia,Camaçari,Jauá,-12.683333,-38.316667
2019-10-09T14:16:35Z,Mimosa lewisii,037264,Brasil,Bahia,Lençóis,"Chapada Diamantina, Serra da Chapadinha",-12.459722,-41.440278
2019-10-09T14:16:35Z,Mimosa lewisii,042733,Brasil,Bahia,Lençóis,"Chapada Diamantina, Trilha do Bodão, margem direita, afluente do rio Ribeirão, a 4 km aproximadamente após a Cachoeira do Sossego, sentido nascente. Parque Nacional da Chapada Diamantina",-12.466667,-41.45
2019-10-09T14:16:35Z,Mimosa lewisii,04615,Brasil,Bahia,Salvador,"Região Metropolitana Salvador, Lagoa do Abaeté",-12.966667,-38.5
2019-10-09T14:16:35Z,Mimosa lewisii,052624,Brasil,Bahia,Entre Rios,restinga de Massarandupió,-12.329167,-37.89
2019-10-09T14:16:35Z,Mimosa lewisii,110748,Brasil,Bahia,Tucano,NA,-11.415,-38.75
2019-10-09T14:16:35Z,Mimosa lewisii,112256,Brasil,Bahia,Jeremoabo,NA,-10.204444,-38.535556
2019-10-09T14:16:35Z,Mimosa lewisii,123453,Brasil,Bahia,Morro do Chapéu,Cachoeira do Ferro Doido.,-11.216667,-41.15
2019-10-09T14:16:35Z,Mimosa lewisii,126367,Brasil,Bahia,Lauro de Freitas,"UNIDUNAS, parcela nº3.",-12.92,-38.318333
2019-10-09T14:16:35Z,Mimosa lewisii,126438,Brasil,Bahia,Mata de São João,Ponto 01.,-12.516667,-38.283333
2019-10-09T14:16:35Z,Mimosa lewisii,37264,Brasil,Bahia,Lençóis,"Chapada Diamantina, Serra da Chapadinha",-12.45,-41.433333
2019-10-09T14:16:35Z,Mimosa lewisii,52527,Brasil,Bahia,Entre Rios,"Litoral Norte, Massarandupió, a 20 km de Porto de Sauípe.",-12.311667,-37.8375
2019-10-09T14:16:35Z,Mimosa lewisii,53650,Brasil,Bahia,Itaête,"Paraguaçu, Assentamento Baixão. Próximo ao rio Una, depois da ponte. Área de reserva degradada",-12.9863996505737,-40.9724998474121
2019-10-09T14:16:35Z,Mimosa lewisii,58001,Brasil,Bahia,Salvador,"Região Metropolitana Salvador, Dunas do Abaeté",-12.933333,-38.35
2019-10-09T14:16:36Z,Mimosa lewisii,62883,Brasil,Bahia,Ribeira do Pombal,"Nordeste, Tabuleiro",-10.833333,-38.533333
2019-10-09T14:16:36Z,Mimosa lewisii,66349,Brasil,Bahia,Canudos,"Nordeste, Reserva Biológica de Canudos - Biodiversitas",-9.942778,-38.988056
2019-10-09T14:16:36Z,Mimosa lewisii,67729,Brasil,Bahia,Morro do Chapéu,Piemonte da Diamantina,-11.635833,-41.001389
2019-10-09T14:16:36Z,Mimosa lewisii,80829,Brasil,Bahia,Ibicoara,"Chapada Diamantina, Caminho para a Cachoeira do Buração",-13.315556,-41.160556
2019-10-09T14:16:36Z,Mimosa lewisii,82006,Brasil,Bahia,Andaraí,Chapada Diamantina,-12.851111,-41.309722
2019-10-09T14:16:36Z,Mimosa lewisii,82952,Brasil,Bahia,Canudos,"Nordeste, Reserva Biológica, Esquentada",-9.949444,-38.98
2019-10-09T14:16:36Z,Mimosa lewisii,93470,Brasil,Bahia,Mucugê,Chapada Diamantina,-12.945,-41.274444
2019-10-09T14:16:36Z,Mimosa lewisii,94604,Brasil,Bahia,Jeremoabo,"Nordeste, Muro",-10.029167,-38.301111
2019-10-09T14:16:36Z,Mimosa lewisii,94755,Brasil,Bahia,Mucugê,"Chapada Diamantina, Trilha para o Rio Paraguaçu, início na estação de tratamento de água",-13.000278,-41.391389
2019-10-09T14:16:36Z,Mimosa lewisii,95851,Brasil,Bahia,Jeremoabo,"Nordeste, Baixa dos Quelés",-9.983333,-38.437778
2019-10-09T14:16:36Z,Mimosa lewisii,95855,Brasil,Bahia,Jeremoabo,"Nordeste, Baixa dos Quelés",-9.983056,-38.44
2019-10-09T14:16:35Z,Mimosa lewisii,NA,Brasil,Bahia,Lençóis,"Chapada Diamantina, Serra da Chapadinha",-12.433333,-41.45
2020-07-23T15:14:33Z,Mimosa lewisii,10416,Brasil,Bahia,SENTO SÉ,"16Km ao W de Lagoinha (5.5Km SW Delfino), Rod. p/ Minas do Mimoso.",-10.366667,-41.333333
2020-07-23T15:14:33Z,Mimosa lewisii,17417,Brasil,Bahia,ANDARAÍ,"Serra de Andarai/Capa Bode, estr. p/ Mucuge.",-12.8072004318237,-41.3314018249512
2020-07-23T15:14:33Z,Mimosa lewisii,25205,Brasil,Bahia,LENÇÓIS,"Serra do Sincora. 6Km ao N Cascavel, Rod. p/ Mucuge.",-13.1,-41.416667
2020-07-23T15:14:33Z,Mimosa lewisii,30244,Brasil,Bahia,LENÇÓIS,"Ca. 8-10Km ao NW Lençóis, estrada p/ Barro Branco.",-12.533333,-41.333333
2020-07-23T15:14:33Z,Mimosa lewisii,30276,Brasil,Bahia,SALVADOR,Ca. 30Km ao N da cidade. Arredores do Aeroporto.,-12.916667,-38.3
2020-07-23T15:14:33Z,Mimosa lewisii,35140,Brasil,Bahia,RIBEIRA DO POMBAL,1Km a W do povoado de Tapera.,-10.833333,-38.55
2020-07-23T15:14:33Z,Mimosa lewisii,35142,Brasil,Bahia,palmeiras,Mucugezinho. Ao lado do Rio.,-12.466667,-41.433333
2020-07-23T15:14:33Z,Mimosa lewisii,35150,Brasil,Bahia,LENÇÓIS,"Margem do Rio Lencois, acima do Serrano.",-12.566667,-41.383333
2020-07-23T15:14:33Z,Mimosa lewisii,50373,Brasil,Bahia,SALVADOR,Arredores Lagoa de Abaete. Itapua.,-12.966667,-38.366667
2020-07-23T15:14:33Z,Mimosa lewisii,62295,Brasil,Bahia,MORRO DO CHAPÉU,"12Km SE cidade, BA-052 ( estr. do feijao).",-11.602222,-41.056944
2020-07-23T15:14:33Z,Mimosa lewisii,68522,Brasil,Bahia,tucano,"7Km NE cidade, estr. p/ R. do Pombal, BR-410.",-10.866667,-38.65
2020-07-23T15:14:33Z,Mimosa lewisii,72603,Brasil,Bahia,MATA DE SÃO JOÃO,Sto. Antonio. Presença de areas umidas.,-12.383333,-37.883333
2020-09-02T19:29:11Z,Mimosa lewisii,21725,Brasil,DF,BRASILIA,"Proximidades da cidade de Lençóis, margens do rio São José.",-15.7797002792358,-47.9296989440918
2020-09-02T19:29:11Z,Mimosa lewisii,76952,Brasil,BA,MORRO DO CHAPEU,"Brasil - Bahia - Morro do Chapeu ca. 1,7 Km E de Morro do chapeu na BA 052 , campo rupestre..",-11.563333,-41.142222
2020-09-02T19:29:11Z,Mimosa lewisii,78125,Brasil,BA,MORRO DO CHAPEU,Ao longo da estrada Morro do Chapéu - Ipira.,-11.5375,-41.184444
2020-09-02T19:29:11Z,Mimosa lewisii,83701,Brasil,PE,BUIQUE,"Parque Nacional da Serra do Catimbau, próximo a pedra do Dragão",-8.5327777,-37.252222
2020-09-02T19:29:11Z,Mimosa lewisii,84611,Brasil,BA,LENCOIS,"Mucugezinho, próximo à Toca dos Patos, na margem do rio Mucugezinho.",-12.457222,-41.416666
2020-09-12T08:00:02Z,Mimosa lewisii,3573192,Brazil,Bahia,NA,"Serras dos Lençois, lower slope sof Morro do Pai Inácio ca. 14.5 km N.W. of Lençois, just N. of the main Seabra, itaberaba road, Município of Palmeiras, open grassy slopes with marshy ground, in shelter of sandstone rocks",-12.45,-41.47
2020-11-04T14:10:00Z,Mimosa lewisii,74566,Brasil,Bahia,Morro do Chapéu,"Estrada para Jacobina, cerca de 7 km de Morro do Chapéu. Caatinga.",-114.975,-411.192
2020-11-15T19:31:00Z,Mimosa lewisii,02478909,Brazil,Bahia,Andaraí,"Na beirada estrada para Igatu, próxima à afloramento",-12.88447,-41.30714
2020-11-15T19:31:00Z,Mimosa lewisii,1146720,Brazil,Bahia,Morro do Chapéu,Chapada Diamantina,-11.62,-41.0014
2020-11-15T19:31:00Z,Mimosa lewisii,2063259,Brazil,Bahia,Morro do Chapéu,"Estrada para Jacobina, ca. de 7 km de Morro de Chapéu.",-11.4975,-41.1192
2020-11-15T19:31:00Z,Mimosa lewisii,2888,Brazil,Bahia,Palmeiras,Km 232 da rodovia BR 242 para Ibotirama. Pai Inácio. Alt. 775 m.,-12.5292,-41.5589
2020-11-15T19:31:00Z,Mimosa lewisii,442582,Brazil,Pernambuco,Buíque,"Catimbau, Serra do Catimbau",-8.62,-37.17
2020-11-15T19:31:00Z,Mimosa lewisii,442585,Brazil,Bahia,Morro do Chapéu,"Serra do Tombador. Rio Ferro Doido, ca. 18km E of Morro do Chapéu",-11.5503,-41.1558
2020-11-15T19:31:00Z,Mimosa lewisii,442587,Brazil,Bahia,Seabra,"Serra da Agua de Rega. Rio Riachao, ca. 27km N of Seabra, road to Agua de Rega",-12.4186,-41.7703
2020-11-15T19:31:00Z,Mimosa lewisii,442589,Brazil,Bahia,NA,Serra do Sincorá. 6km N of Cascavel on the road to Mucugé. F6,-13.1,-41.42
2020-11-15T19:31:00Z,Mimosa lewisii,442592,Brazil,Bahia,Morro do Chapéu,"Rio do Ferro Doido, 19.5km SE of Morro do Chapéu on the BA 052 highway to Mundo Novo. D6",-11.63,-41.03
2020-11-15T19:31:00Z,Mimosa lewisii,442594,Brazil,Bahia,NA,Serra do Curral Feio. 16km NW of Lagoinha (5.5km SW of Delfino) on side road to Minas do Mimoso,-10.37,-41.33
2020-11-15T19:31:00Z,Mimosa lewisii,442596,Brazil,Bahia,Salvador,"Dunas de Itapua, arredores da Lagoa de Abaeté",-12.93,-38.35
2020-11-15T19:31:00Z,Mimosa lewisii,442600,Brazil,Bahia,Salvador,"Dunas de Itapua, arredores da Lagoa de Abaeté",-12.97,-38.37
2020-11-15T19:31:00Z,Mimosa lewisii,442601,Brazil,Bahia,Lençóis,Ca. 8-10km NW de Lençois. Estrada para Barro Branco,-12.53,-41.33
2020-11-15T19:31:00Z,Mimosa lewisii,442602,Brazil,Bahia,NA,Jeremoabo. Folha SC. 24-Z-A. Ponto 12,-10.22,-38.5
2020-11-15T19:31:00Z,Mimosa lewisii,442604,Brazil,Bahia,Camaçari,"Rodovia Linha Verde, proximo de Arembepe",-12.69,-38.32
2020-11-15T19:31:00Z,Mimosa lewisii,442605,Brazil,Bahia,Mucugê,Rio Mucugê,-13.0056,-41.3706
2020-11-15T19:31:00Z,Mimosa lewisii,442607,Brazil,Bahia,Salvador,Ca. 30km ao N da cidade. Dunas nos Arredores da Lagoa de Abaeté,-12.93708,-38.352556
2020-11-15T19:31:00Z,Mimosa lewisii,442608,Brazil,Bahia,Tucano,Kms 7-10 na estrada de Tucano para Ribeira do Pombal,-10.9633,-38.7867
2020-11-15T19:31:00Z,Mimosa lewisii,442609,Brazil,Bahia,Lençóis,Folha SD.24-X-A. Rio Sao José,-12.58,-41.42
2020-11-15T19:31:00Z,Mimosa lewisii,442610,Brazil,Bahia,Morro do Chapéu,Ca. 12 km SE de Morro do Chapéu na BA 052 (estrada do feijao),-11.6022,-41.0569
2020-11-15T19:31:00Z,Mimosa lewisii,442611,Brazil,Bahia,Tucano,7km NE de Tucano na estrada para Ribeira do Pombal (BR 410),-10.87,-38.65
2020-11-15T19:31:00Z,Mimosa lewisii,442612,Brazil,Bahia,Lençóis,"Caminho para Capao (Caete-Açu) por tras da Pousada de Lençois, ca. 4km de Lençois",-12.5633,-41.3897
2020-11-15T19:31:00Z,Mimosa lewisii,442613,Brazil,Bahia,Andaraí,"7km de Andaraí, estrada p/ Mucugê. Ponte sobre o Rio Paraguaçu. antes de Igatu",-12.8,-41.33
2019-11-01T18:00:15Z,Mimosa lewisii,140088,Brasil,Bahia,Jaquarari,Rodovia Juazeiro-Senhor do Bonfim (BR-407) Km 100,-10.316667,-40.166667
2019-11-01T18:00:15Z,Mimosa lewisii,140090,Brasil,Bahia,Brotas de Macaúbas,Proximidades cidade de Lençóis,-12.416667,-42.366667
2019-01-25T17:41:02Z,Mimosa lewisii,23331,Brasil,Bahia,Água Fria,NA,-11.8667,-38.7667
2019-02-22T14:45:40Z,Mimosa lewisii,54131,Brasil,Pernambuco,Tacaratu,"Na serra Grande, próximo a torre da antena.",-9.10527992248535,-38.1492004394531
2019-02-22T14:45:40Z,Mimosa lewisii,81800,Brasil,Bahia,Palmeiras,"Distrito Campo São João, leito do rio sem nome \""Rio da Rua\"" completamente seco.",-12.452222,-41.488056
2019-02-22T14:45:40Z,Mimosa lewisii,82399,Brasil,Pernambuco,Buíque,"Vale do Catimbau, Paraiso Selvagem, propriedade do Sr. Jurandir, na subida para o alto do lajeiro",-8.583611,-37.240833
2019-02-22T14:45:40Z,Mimosa lewisii,84027,Brasil,Pernambuco,Buíque,Parque Nacional do Catimbau,-8.569167,-37.235556
2019-02-22T14:45:40Z,Mimosa lewisii,84053,Brasil,Pernambuco,Buíque,Parque Nacional do Catimbau,-8.4,-37.158333
2020-03-02T12:10:57Z,Mimosa lewisii,17401,Brasil,Pernambuco,Buíque,Serra do Catimbau,-8.616667,-37.166667
2020-03-02T12:10:57Z,Mimosa lewisii,22724,Brasil,Pernambuco,Buíque,Fazenda Laranjeiras,-8.625,-37.154167
2020-06-09T19:54:27Z,Mimosa lewisii,24058,Brasil,Bahia,Lençóis,"Próximo ao Rio São José, ao longo da rodovia para a cidade, km 11",-12.5575,-41.3875
2020-06-12T20:27:34Z,Mimosa lewisii,31210,Brasil,Bahia,Lençóis,"Próximo ao Rio São José, ao longo da rodovia para a cidade, km 10",-12.5575,-41.383333
2020-03-02T12:10:57Z,Mimosa lewisii,37717,Brasil,Bahia,Canudos,Toca Velha. Estação Biológica de Canudos (Sede de biodiversitas),-10.032778,-39.15
2020-12-01T17:20:56Z,Mimosa lewisii,10740,Brasil,Pernambuco,Tacaratu,"Estrada para a Serra do Morcego, Baixa do Lério",-9.076055,-38.142805
2020-12-01T17:20:56Z,Mimosa lewisii,6697,Brasil,Pernambuco,Tacaratu,"Saco do Romão, caminho para tribo indígena Pankararus",-9.115944,-38.180694
2014-06-04T16:00:00Z,Mimosa lewisii,100711286,Brazil,Bahia,Morro do Chapéu,"Estrada para Jacobina, cerca de 7 km de Morro do Chapéu.",-11.4975,-41.1191667
2019-08-15T12:03:03Z,Mimosa lewisii,7746,Brasil,Bahia,Santa Brígida,NA,-9.483333,-38.2
2019-11-27T16:48:57Z,Mimosa lewisii,14810,Brasil,Pernambuco,Buíque,Parque Nacional de Catimbau,-8.614225,-37.160825
2019-11-27T16:48:57Z,Mimosa lewisii,3977,Brasil,Bahia,Paulo Afonso,NA,-9.683611,-38.363056
2020-05-08T14:10:42Z,Mimosa lewisii,103499,Brasil,Bahia,Paulo Afonso,Estação Ecológica do Raso Da Catarina,-9.661667,-38.467222
2020-05-08T14:10:42Z,Mimosa lewisii,106814,Brasil,Bahia,Morro do Chapéu,"ca. 3,0 Km E de Morro do Chapéu na estrada para Ipirá.",-11.540278,-41.185278
2020-05-08T14:10:42Z,Mimosa lewisii,110949,Brasil,Bahia,Paulo Afonso,Estação Ecológica Raso da Catarina. Paus-pretos.,-9.6825,-38.585556
2020-05-08T14:10:42Z,Mimosa lewisii,122539,Brasil,Pernambuco,Buíque,Trilha dos Torres. Parque Nacional Serra do Catibau. Sítio Pititi.,-8.575833,-37.245833
2020-05-08T14:10:42Z,Mimosa lewisii,128425,Brasil,Bahia,Morro do Chapéu,"ca. 5,0 Km da entrada da Fazenda Guariba.",-11.410556,-41.220556
2020-05-08T14:10:42Z,Mimosa lewisii,131356,Brasil,Bahia,Morro do Chapéu,Lajedo Bordado,-11.258333,-41.094722
2020-05-08T14:10:42Z,Mimosa lewisii,137650,Brasil,Pernambuco,Buíque,"Vale do Catimbau, Paraíso Selvagem, propriedade do Sr. Jurandir, na subida para o alto do lajeiro.",-8.583333,-37.234444
2020-05-08T14:10:42Z,Mimosa lewisii,13876,Brasil,Bahia,Morro do Chapéu,NA,-11.6,-41.05
2020-05-08T14:10:42Z,Mimosa lewisii,15371,Brasil,Bahia,Itapicuru,NA,-11.316667,-38.1
2020-05-08T14:10:42Z,Mimosa lewisii,156752,Brasil,Bahia,Tucano,"Boqueirão. Afloramento de arenito na beira da estrada, antes do prédio escolar.",-10.95,-38.716667
2020-05-08T14:10:42Z,Mimosa lewisii,156983,Brasil,Bahia,Jeremoabo,Baixa dos Quelés.,-9.966667,-38.437778
2020-05-08T14:10:42Z,Mimosa lewisii,157149,Brasil,Bahia,Jeremoabo,Muro.,-10.195833,-38.301111
2020-05-08T14:10:42Z,Mimosa lewisii,164060,Brasil,Bahia,NA,"3,5 km Morro do Chapéu - Salvador. Beira da estrada em dique acima das lages de arenito.",-11.683333,-40.016667
2020-05-08T14:10:42Z,Mimosa lewisii,168794,Brasil,Bahia,Jeremoabo,"Comunidade Baixa dos Quelés, Saco do Felipe, ca. 23 km de Jeremoabo, 351 km de Slavador.",-9.966667,-38.433333
2020-05-08T14:10:42Z,Mimosa lewisii,169752,Brasil,Bahia,Tucano,Quererá. Caatinga arbustiva sob solo arenoso (Próximo à torre de telecomunicações).,-11.145,-38.84
2020-05-08T14:10:42Z,Mimosa lewisii,178616,Brasil,Bahia,Mata de São João,Linha Verde.,-12.5,-37.983333
2020-05-08T14:10:42Z,Mimosa lewisii,180521,Brasil,Bahia,Mata de São João,Imbassaí (loteamento do Mirante).,-13.237222,-38.978333
2020-05-08T14:10:42Z,Mimosa lewisii,18829,Brasil,Bahia,Salvador,"Dunas de Itapoã, próximo ao loteamento Alamedas da Praia, a ca. 30 km N do Centro de Salvador.",-12.916667,-38.016667
2020-05-08T14:10:42Z,Mimosa lewisii,189383,Brasil,Bahia,Salvador,Dunas do Abaeté.,-12.944444,-38.356944
2020-05-08T14:10:42Z,Mimosa lewisii,190956,Brasil,Bahia,Lençóis,Área de garimpo às margens do Rio São José.,-12.576667,-41.3825
2020-05-08T14:10:42Z,Mimosa lewisii,190983,Brasil,Bahia,Lençóis,Área de garimpo às margens do Rio São José.,-12.573889,-41.382222
2020-05-08T14:10:42Z,Mimosa lewisii,193568,Brasil,Bahia,Lençóis,"Mucugezinho, próximo à Toca dos Patos na margem do Rio Mucugezinho.",-12.457222,-41.416667
2020-05-08T14:10:42Z,Mimosa lewisii,205332,Brazil,Bahia,Bom Jesus da Lapa,Área TreeAtlan BAbjes,-13.106944,-43.175556
2020-05-08T14:10:42Z,Mimosa lewisii,205371,Brazil,Bahia,Palmeiras,Estrada de Palmeiras para Serra Negra. Área TreeAtlan BAplmc,-12.554444,-41.605278
2020-05-08T14:10:43Z,Mimosa lewisii,206310,Brasil,Bahia,Mata de São João,Restinga. Área ensolarada.,-12.5303001403809,-38.2991981506348
2020-05-08T14:10:43Z,Mimosa lewisii,207442,Brasil,Bahia,Barra da Estiva,"Povoado de Camulengo, estrada de chão sentindo pinturas rupestres.",-13.55,-41.166667
2020-05-08T14:10:42Z,Mimosa lewisii,20789,Brasil,Bahia,Lençóis,Serra da Chapadinha.,-12.216667,-41.433333
2020-05-08T14:10:43Z,Mimosa lewisii,216752,Brasil,Bahia,Mucugê,Alto do rio Paraguaçu.,-12.992222,-41.390278
2020-05-08T14:10:43Z,Mimosa lewisii,236836,Brasil,Pernambuco,Tacaratu,"Serra de Tacaratu, Parque Eólico Pedra do Gerônimo, próximo as torres 01 a 06.",-9.033333,0
2020-05-08T14:10:43Z,Mimosa lewisii,236901,Brasil,Pernambuco,Tacaratu,Serra do Cruzeiro. Cerrado. Solo arenoso.,-9.116667,0
2020-05-08T14:10:42Z,Mimosa lewisii,6240,Brasil,Bahia,Santa Brígida,NA,-9.333333,-38.483333
2020-05-08T14:10:42Z,Mimosa lewisii,67779,Brasil,Bahia,Banzae,"Área indígina Kiriri, local Baixa da Cangalha.",-10.669167,-38.666944
2020-05-08T14:10:42Z,Mimosa lewisii,72883,Brasil,Bahia,Canudos,Biodiversitas - Base II,-9.943889,-39.014722
2020-05-08T14:10:42Z,Mimosa lewisii,73412,Brasil,Bahia,Canudos,Estação Biológica de Canudos,-10.016667,-39.15
2020-05-08T14:10:42Z,Mimosa lewisii,77277,Brasil,Pernambuco,Buíque,Serra de Jerusalém.,-8.5825,-37.239444
2020-05-08T14:10:42Z,Mimosa lewisii,77291,Brasil,Pernambuco,Buíque,Serra do Catimbau,-8.553056,-37.214167
2020-05-08T14:10:42Z,Mimosa lewisii,7905,Brasil,Bahia,Camaçari,NA,-12.733333,-38.15
2020-05-08T14:10:42Z,Mimosa lewisii,84389,Brasil,Bahia,Canudos,Estação Biológica de Canudos / Fundação Biodiversitos - Base II.,-9.944722,-39.017778
2020-05-08T14:10:42Z,Mimosa lewisii,91362,Brasil,Bahia,Morro do Chapéu,"Taboleiro dos Tigres, cerca de 5 km ao sul de Morro do Chapéu ma estrada para Utinga.",-11.613056,-41.162778
2020-05-08T14:10:42Z,Mimosa lewisii,91856,Brasil,Bahia,Lençóis,Rio Lençóis.,-12.561667,-41.405
2020-05-08T14:10:42Z,Mimosa lewisii,96793,Brasil,Bahia,Lençóis,Parque Nacional da Chapada Diamantina.,-12.568333,-41.405833
2020-05-08T14:10:42Z,Mimosa lewisii,99000,Brasil,Bahia,Paulo Afonso,Raso da Catarina. Baixio do Cachimbo.,-9.653333,-38.531111
2019-08-20T13:14:21Z,Mimosa lewisii,172474,Brazil,Bahia,Morro do Chapéu,Ca. 1.7km E de Morro do Chapéu na BA-052.,-11.563333,-42.388889
2016-10-27T18:01:13Z,Mimosa lewisii,P01167652,Brésil,Bahia,NA,"Bahia, Paulo Afonso",-9.66167,-38.46722
2016-10-27T18:01:14Z,Mimosa lewisii,P01167653,Brésil,Bahia,NA,"Bahia, Lençois",-12.56667,-41.38333
2016-10-27T18:01:14Z,Mimosa lewisii,P01167654,Brésil,Bahia,NA,"Bahia, Morro do Chapéu",-11.54028,-41.18528
2020-09-25T13:41:53Z,Mimosa lewisii,45209,Brasil,Bahia,Jeremoabo,"Fazenda Barreirinhas, Reserva Biológica Arara-azul-de-Lear. Caatinga arbustivo-arbórea espaçada. Solo argilo-arenoso. Área: 34.225 ha.",-10.266667,-38.783333
2019-11-21T13:06:11Z,Mimosa lewisii,160103,Brasil,Bahia,Aporá,"31 km S of Olindina, along highway, BR-116",-11.6603002548218,-38.0814018249512
